[{"OBJECT_NAME":"YAOGAN-30 02A","OBJECT_ID":"2017-058A","EPOCH":"2026-03-09T22:50:50.758368","MEAN_MOTION":15.02502907,"ECCENTRICITY":0.0002444,"INCLINATION":34.9965,"RA_OF_ASC_NODE":274.2208,"ARG_OF_PERICENTER":338.504,"MEAN_ANOMALY":21.5565,"EPHEMERIS_TYPE":0,"CLASSIFICATION_TYPE":"U","NORAD_CAT_ID":42945,"ELEMENT_SET_NO":999,"REV_AT_EPOCH":46095,"BSTAR":0.00033405903,"MEAN_MOTION_DOT":4.5e-5,"MEAN_MOTION_DDOT":0},{"OBJECT_NAME":"STARLINK-5865","OBJECT_ID":"2023-088F","EPOCH":"2026-03-09T10:53:59.688384","MEAN_MOTION":15.02533595,"ECCENTRICITY":0.00011783,"INCLINATION":43.0027,"RA_OF_ASC_NODE":108.8078,"ARG_OF_PERICENTER":270.98,"MEAN_ANOMALY":89.0907,"EPHEMERIS_TYPE":0,"CLASSIFICATION_TYPE":"U","NORAD_CAT_ID":57053,"ELEMENT_SET_NO":999,"REV_AT_EPOCH":15033,"BSTAR":-4.665618e-6,"MEAN_MOTION_DOT":-2.67e-6,"MEAN_MOTION_DDOT":0}]
